{
    "links": {
        "self": "http://www.neowsapp.com/rest/v1/neo/3787635?api_key=iIulBulltgU6a56xZRHN4H3l9WmuAYTsLGpBGhQ2"
    },
    "id": "3787635",
    "neo_reference_id": "3787635",
    "name": "(2017 UK3)",
    "designation": "2017 UK3",
    "nasa_jpl_url": "http://ssd.jpl.nasa.gov/sbdb.cgi?sstr=3787635",
    "absolute_magnitude_h": 27.4,
    "estimated_diameter": {
        "kilometers": {
            "estimated_diameter_min": 0.0088014652,
            "estimated_diameter_max": 0.0196806745
        },
        "meters": {
            "estimated_diameter_min": 8.801465209,
            "estimated_diameter_max": 19.6806745089
        },
        "miles": {
            "estimated_diameter_min": 0.0054689752,
            "estimated_diameter_max": 0.0122290004
        },
        "feet": {
            "estimated_diameter_min": 28.8761991163,
            "estimated_diameter_max": 64.5691441559
        }
    },
    "is_potentially_hazardous_asteroid": false,
    "close_approach_data": [
        {
            "close_approach_date": "2017-10-24",
            "close_approach_date_full": "2017-Oct-24 21:09",
            "epoch_date_close_approach": 1508879340000,
            "relative_velocity": {
                "kilometers_per_second": "13.3093184324",
                "kilometers_per_hour": "47913.5463564636",
                "miles_per_hour": "29771.614401326"
            },
            "miss_distance": {
                "astronomical": "0.0035566849",
                "lunar": "1.3835504261",
                "kilometers": "532072.485301163",
                "miles": "330614.5115675294"
            },
            "orbiting_body": "Earth"
        },
        {
            "close_approach_date": "2017-10-24",
            "close_approach_date_full": "2017-Oct-24 23:12",
            "epoch_date_close_approach": 1508886720000,
            "relative_velocity": {
                "kilometers_per_second": "14.2488271605",
                "kilometers_per_hour": "51295.7777778302",
                "miles_per_hour": "31873.2014753412"
            },
            "miss_distance": {
                "astronomical": "0.0020655765",
                "lunar": "0.8035092585",
                "kilometers": "309005.844722055",
                "miles": "192007.328412159"
            },
            "orbiting_body": "Moon"
        }
    ],
    "orbital_data": {
        "orbit_id": "2",
        "orbit_determination_date": "2019-11-07 08:13:35",
        "first_observation_date": "2017-10-20",
        "last_observation_date": "2017-10-23",
        "data_arc_in_days": 3,
        "observations_used": 28,
        "orbit_uncertainty": "7",
        "minimum_orbit_intersection": ".00190967",
        "jupiter_tisserand_invariant": "3.623",
        "epoch_osculation": "2459000.5",
        "eccentricity": ".5891454663207001",
        "semi_major_axis": "1.981114976134793",
        "inclination": "1.013340923939626",
        "ascending_node_longitude": "37.08346417807406",
        "orbital_period": "1018.504491172426",
        "perihelion_distance": ".813950069684938",
        "perihelion_argument": "52.91823135547528",
        "aphelion_distance": "3.148279882584649",
        "perihelion_time": "2459111.750149427637",
        "mean_anomaly": "320.6775874421068",
        "mean_motion": ".3534594134048394",
        "equinox": "J2000",
        "orbit_class": {
            "orbit_class_type": "APO",
            "orbit_class_description": "Near-Earth asteroid orbits which cross the Earth’s orbit similar to that of 1862 Apollo",
            "orbit_class_range": "a (semi-major axis) > 1.0 AU; q (perihelion) < 1.017 AU"
        }
    },
    "is_sentry_object": false
}